start=new Date('2022-04-30T00:00:00.000Z').valueOf();
sats=[{"MEAN_ANOMALY":"282.9930","ELEMENT_SET_NO":"999","REV_AT_EPOCH":"9639","EPHEMERIS_TYPE":"0","TIME_SYSTEM":"UTC","OBJECT_TYPE":"PAYLOAD","RA_OF_ASC_NODE":"335.7226","MEAN_ELEMENT_THEORY":"SGP4","LAUNCH_DATE":"2020-08-07","OBJECT_NAME":"STARLINK-1526","CLASSIFICATION_TYPE":"U","ARG_OF_PERICENTER":"77.1215","PERIAPSIS":"546.265","GP_ID":"202309013","SEMIMAJOR_AXIS":"6925.366","COUNTRY_CODE":"US","OBJECT_ID":"2020-055C","REF_FRAME":"TEME","ECCENTRICITY":"0.00013950","EPOCH":"2022-04-29T19:57:05.706720","BSTAR":"-0.00019543000000","FILE":"3421985","SITE":"AFETR","TLE_LINE2":"2 46029  53.0536 335.7226 0001395  77.1215 282.9930 15.06394345 96394","PERIOD":"95.592","MEAN_MOTION_DDOT":"0.0000000000000","INCLINATION":"53.0536","MEAN_MOTION":"15.06394345","DECAY_DATE":null,"NORAD_CAT_ID":"46029","RCS_SIZE":"LARGE","CENTER_NAME":"EARTH","APOAPSIS":"548.197","MEAN_MOTION_DOT":"-0.00003191","TLE_LINE1":"1 46029U 20055C   22119.83131605 -.00003191  00000-0 -19543-3 0  9996"},{"COUNTRY_CODE":"US","OBJECT_ID":"2020-055D","BSTAR":"-0.00014324000000","EPOCH":"2022-04-29T20:23:38.087232","REF_FRAME":"TEME","ECCENTRICITY":"0.00013630","FILE":"3421848","MEAN_MOTION_DDOT":"0.0000000000000","TLE_LINE2":"2 46030  53.0560 335.6311 0001363  94.1651 265.9494 15.06395837 95881","SITE":"AFETR","PERIOD":"95.592","MEAN_MOTION":"15.06395837","INCLINATION":"53.0560","DECAY_DATE":null,"NORAD_CAT_ID":"46030","APOAPSIS":"548.170","RCS_SIZE":"LARGE","CENTER_NAME":"EARTH","MEAN_MOTION_DOT":"-0.00002414","TLE_LINE1":"1 46030U 20055D   22119.84974638 -.00002414  00000-0 -14324-3 0  9999","ELEMENT_SET_NO":"999","MEAN_ANOMALY":"265.9494","TIME_SYSTEM":"UTC","EPHEMERIS_TYPE":"0","REV_AT_EPOCH":"9588","RA_OF_ASC_NODE":"335.6311","OBJECT_TYPE":"PAYLOAD","CLASSIFICATION_TYPE":"U","MEAN_ELEMENT_THEORY":"SGP4","OBJECT_NAME":"STARLINK-1534","LAUNCH_DATE":"2020-08-07","PERIAPSIS":"546.282","ARG_OF_PERICENTER":"94.1651","SEMIMAJOR_AXIS":"6925.361","GP_ID":"202285989"},{"TLE_LINE1":"1 46031U 20055E   22119.85343343 -.00002072  00000-0 -12029-3 0  9994","MEAN_MOTION_DOT":"-0.00002072","RCS_SIZE":"LARGE","CENTER_NAME":"EARTH","APOAPSIS":"548.250","NORAD_CAT_ID":"46031","DECAY_DATE":null,"INCLINATION":"53.0554","MEAN_MOTION":"15.06390831","PERIOD":"95.593","SITE":"AFETR","TLE_LINE2":"2 46031  53.0554 335.6170 0001456  74.8084 285.3066 15.06390831 96382","MEAN_MOTION_DDOT":"0.0000000000000","FILE":"3421985","ECCENTRICITY":"0.00014560","REF_FRAME":"TEME","BSTAR":"-0.00012029000000","EPOCH":"2022-04-29T20:28:56.648352","OBJECT_ID":"2020-055E","COUNTRY_CODE":"US","GP_ID":"202308011","SEMIMAJOR_AXIS":"6925.377","ARG_OF_PERICENTER":"74.8084","PERIAPSIS":"546.233","OBJECT_NAME":"STARLINK-1544","LAUNCH_DATE":"2020-08-07","MEAN_ELEMENT_THEORY":"SGP4","CLASSIFICATION_TYPE":"U","RA_OF_ASC_NODE":"335.6170","OBJECT_TYPE":"PAYLOAD","REV_AT_EPOCH":"9638","EPHEMERIS_TYPE":"0","TIME_SYSTEM":"UTC","MEAN_ANOMALY":"285.3066","ELEMENT_SET_NO":"999"},{"MEAN_ELEMENT_THEORY":"SGP4","OBJECT_NAME":"STARLINK-1555","LAUNCH_DATE":"2020-08-07","CLASSIFICATION_TYPE":"U","ARG_OF_PERICENTER":"60.2631","PERIAPSIS":"546.091","GP_ID":"202308763","SEMIMAJOR_AXIS":"6925.377","MEAN_ANOMALY":"299.8523","ELEMENT_SET_NO":"999","REV_AT_EPOCH":"9640","EPHEMERIS_TYPE":"0","TIME_SYSTEM":"UTC","RA_OF_ASC_NODE":"335.4827","OBJECT_TYPE":"PAYLOAD","INCLINATION":"53.0561","MEAN_MOTION":"15.06390558","DECAY_DATE":null,"NORAD_CAT_ID":"46032","RCS_SIZE":"LARGE","CENTER_NAME":"EARTH","APOAPSIS":"548.394","MEAN_MOTION_DOT":"-0.00002371","TLE_LINE1":"1 46032U 20055F   22119.88292303 -.00002371  00000-0 -14038-3 0  9991","COUNTRY_CODE":"US","OBJECT_ID":"2020-055F","REF_FRAME":"TEME","ECCENTRICITY":"0.00016630","BSTAR":"-0.00014038000000","EPOCH":"2022-04-29T21:11:24.549792","FILE":"3421985","SITE":"AFETR","TLE_LINE2":"2 46032  53.0561 335.4827 0001663  60.2631 299.8523 15.06390558 96402","PERIOD":"95.593","MEAN_MOTION_DDOT":"0.0000000000000"},{"TLE_LINE1":"1 46033U 20055G   22119.86448803 -.00001504  00000-0 -82111-4 0  9993","MEAN_MOTION_DOT":"-0.00001504","CENTER_NAME":"EARTH","RCS_SIZE":"LARGE","APOAPSIS":"548.246","DECAY_DATE":null,"NORAD_CAT_ID":"46033","INCLINATION":"53.0549","MEAN_MOTION":"15.06396513","PERIOD":"95.592","SITE":"AFETR","TLE_LINE2":"2 46033  53.0549 335.5752 0001476  75.3122 284.8031 15.06396513 96372","MEAN_MOTION_DDOT":"0.0000000000000","FILE":"3421985","ECCENTRICITY":"0.00014760","REF_FRAME":"TEME","EPOCH":"2022-04-29T20:44:51.765792","BSTAR":"-0.00008211100000","OBJECT_ID":"2020-055G","COUNTRY_CODE":"US","GP_ID":"202308520","SEMIMAJOR_AXIS":"6925.359","ARG_OF_PERICENTER":"75.3122","PERIAPSIS":"546.202","OBJECT_NAME":"STARLINK-1556","LAUNCH_DATE":"2020-08-07","MEAN_ELEMENT_THEORY":"SGP4","CLASSIFICATION_TYPE":"U","RA_OF_ASC_NODE":"335.5752","OBJECT_TYPE":"PAYLOAD","REV_AT_EPOCH":"9637","TIME_SYSTEM":"UTC","EPHEMERIS_TYPE":"0","MEAN_ANOMALY":"284.8031","ELEMENT_SET_NO":"999"},{"PERIAPSIS":"546.128","ARG_OF_PERICENTER":"75.4446","SEMIMAJOR_AXIS":"6925.370","GP_ID":"202307268","CLASSIFICATION_TYPE":"U","LAUNCH_DATE":"2020-08-07","OBJECT_NAME":"STARLINK-1557","MEAN_ELEMENT_THEORY":"SGP4","OBJECT_TYPE":"PAYLOAD","RA_OF_ASC_NODE":"335.5661","ELEMENT_SET_NO":"999","MEAN_ANOMALY":"284.6721","EPHEMERIS_TYPE":"0","TIME_SYSTEM":"UTC","REV_AT_EPOCH":"9637","APOAPSIS":"548.341","CENTER_NAME":"EARTH","RCS_SIZE":"LARGE","TLE_LINE1":"1 46034U 20055H   22119.86817404 -.00001986  00000-0 -11445-3 0  9996","MEAN_MOTION_DOT":"-0.00001986","MEAN_MOTION":"15.06393070","INCLINATION":"53.0535","DECAY_DATE":null,"NORAD_CAT_ID":"46034","FILE":"3421985","MEAN_MOTION_DDOT":"0.0000000000000","PERIOD":"95.593","TLE_LINE2":"2 46034  53.0535 335.5661 0001598  75.4446 284.6721 15.06393070 96371","SITE":"AFETR","OBJECT_ID":"2020-055H","COUNTRY_CODE":"US","EPOCH":"2022-04-29T20:50:10.237056","BSTAR":"-0.00011445000000","ECCENTRICITY":"0.00015980","REF_FRAME":"TEME"},{"PERIOD":"95.592","SITE":"AFETR","TLE_LINE2":"2 46035  53.0549 335.5086 0001682  82.7845 277.3335 15.06401144 96402","MEAN_MOTION_DDOT":"0.0000000000000","FILE":"3421985","ECCENTRICITY":"0.00016820","REF_FRAME":"TEME","EPOCH":"2022-04-29T21:00:47.438784","BSTAR":"-0.00002208600000","OBJECT_ID":"2020-055J","COUNTRY_CODE":"US","TLE_LINE1":"1 46035U 20055J   22119.87554906 -.00000611  00000-0 -22086-4 0  9991","MEAN_MOTION_DOT":"-0.00000611","CENTER_NAME":"EARTH","RCS_SIZE":"LARGE","APOAPSIS":"548.375","NORAD_CAT_ID":"46035","DECAY_DATE":null,"INCLINATION":"53.0549","MEAN_MOTION":"15.06401144","RA_OF_ASC_NODE":"335.5086","OBJECT_TYPE":"PAYLOAD","REV_AT_EPOCH":"9640","EPHEMERIS_TYPE":"0","TIME_SYSTEM":"UTC","MEAN_ANOMALY":"277.3335","ELEMENT_SET_NO":"999","SEMIMAJOR_AXIS":"6925.345","GP_ID":"202307518","ARG_OF_PERICENTER":"82.7845","PERIAPSIS":"546.045","LAUNCH_DATE":"2020-08-07","OBJECT_NAME":"STARLINK-1558","MEAN_ELEMENT_THEORY":"SGP4","CLASSIFICATION_TYPE":"U"},{"OBJECT_TYPE":"PAYLOAD","RA_OF_ASC_NODE":"335.5810","REV_AT_EPOCH":"9640","EPHEMERIS_TYPE":"0","TIME_SYSTEM":"UTC","MEAN_ANOMALY":"285.8399","ELEMENT_SET_NO":"999","SEMIMAJOR_AXIS":"6925.345","GP_ID":"202308270","ARG_OF_PERICENTER":"74.2758","PERIAPSIS":"546.151","MEAN_ELEMENT_THEORY":"SGP4","OBJECT_NAME":"STARLINK-1560","LAUNCH_DATE":"2020-08-07","CLASSIFICATION_TYPE":"U","SITE":"AFETR","TLE_LINE2":"2 46036  53.0560 335.5810 0001530  74.2758 285.8399 15.06401129 96409","PERIOD":"95.592","MEAN_MOTION_DDOT":"0.0000000000000","FILE":"3421985","REF_FRAME":"TEME","ECCENTRICITY":"0.00015300","BSTAR":"0.00004129800000","EPOCH":"2022-04-29T20:39:33.432768","COUNTRY_CODE":"US","OBJECT_ID":"2020-055K","MEAN_MOTION_DOT":"0.00000334","TLE_LINE1":"1 46036U 20055K   22119.86080362  .00000334  00000-0  41298-4 0  9997","RCS_SIZE":"LARGE","CENTER_NAME":"EARTH","APOAPSIS":"548.270","NORAD_CAT_ID":"46036","DECAY_DATE":null,"INCLINATION":"53.0560","MEAN_MOTION":"15.06401129"},{"ELEMENT_SET_NO":"999","MEAN_ANOMALY":"278.4541","EPHEMERIS_TYPE":"0","TIME_SYSTEM":"UTC","REV_AT_EPOCH":"9588","OBJECT_TYPE":"PAYLOAD","RA_OF_ASC_NODE":"335.6181","CLASSIFICATION_TYPE":"U","MEAN_ELEMENT_THEORY":"SGP4","LAUNCH_DATE":"2020-08-07","OBJECT_NAME":"STARLINK-1565","PERIAPSIS":"546.131","ARG_OF_PERICENTER":"81.6630","GP_ID":"202282661","SEMIMAJOR_AXIS":"6925.381","COUNTRY_CODE":"US","OBJECT_ID":"2020-055L","BSTAR":"-0.00017855000000","EPOCH":"2022-04-29T20:34:15.148992","REF_FRAME":"TEME","ECCENTRICITY":"0.00016110","FILE":"3421721","MEAN_MOTION_DDOT":"0.0000000000000","SITE":"AFETR","TLE_LINE2":"2 46037  53.0547 335.6181 0001611  81.6630 278.4541 15.06389320 95884","PERIOD":"95.593","MEAN_MOTION":"15.06389320","INCLINATION":"53.0547","DECAY_DATE":null,"NORAD_CAT_ID":"46037","APOAPSIS":"548.362","CENTER_NAME":"EARTH","RCS_SIZE":"LARGE","MEAN_MOTION_DOT":"-0.00002939","TLE_LINE1":"1 46037U 20055L   22119.85711978 -.00002939  00000-0 -17855-3 0  9997"},{"FILE":"3421985","SITE":"AFETR","TLE_LINE2":"2 46038  53.0536 335.5479 0001581  82.0642 278.0526 15.06394748 96392","PERIOD":"95.592","MEAN_MOTION_DDOT":"0.0000000000000","COUNTRY_CODE":"US","OBJECT_ID":"2020-055M","REF_FRAME":"TEME","ECCENTRICITY":"0.00015810","BSTAR":"-0.00000666680000","EPOCH":"2022-04-29T20:55:29.171424","RCS_SIZE":"LARGE","CENTER_NAME":"EARTH","APOAPSIS":"548.325","MEAN_MOTION_DOT":"-0.00000381","TLE_LINE1":"1 46038U 20055M   22119.87186541 -.00000381  00000-0 -66668-5 0  9999","INCLINATION":"53.0536","MEAN_MOTION":"15.06394748","NORAD_CAT_ID":"46038","DECAY_DATE":null,"OBJECT_TYPE":"PAYLOAD","RA_OF_ASC_NODE":"335.5479","MEAN_ANOMALY":"278.0526","ELEMENT_SET_NO":"999","REV_AT_EPOCH":"9639","EPHEMERIS_TYPE":"0","TIME_SYSTEM":"UTC","ARG_OF_PERICENTER":"82.0642","PERIAPSIS":"546.135","SEMIMAJOR_AXIS":"6925.365","GP_ID":"202307762","MEAN_ELEMENT_THEORY":"SGP4","OBJECT_NAME":"STARLINK-1567","LAUNCH_DATE":"2020-08-07","CLASSIFICATION_TYPE":"U"}];
